ONEWEB-0694             
1 56722U 23068N   24101.52970586  .00000055  00000+0  10927-3 0  9992
2 56722  87.9137  27.5031 0002399  84.3169 275.8236 13.16596442 46814
ONEWEB-0696             
1 56723U 23068P   24101.40735380  .00000183  00000+0  45121-3 0  9997
2 56723  87.9017  57.9823 0001687  75.8979 284.2339 13.15550156 44470
ONEWEB-0703             
1 56724U 23068Q   24101.56897541  .00000143  00000+0  34595-3 0  9992
2 56724  87.9017  57.9712 0001067  39.8967 320.2242 13.15549144 44386
ONEWEB-0721             
1 56725U 23068R   24101.45899313  .00009557  00000+0  11258-2 0  9998
2 56725  86.6828   4.3932 0012126 140.4207 219.7905 14.84641738 48467
